CCSDS_OMM_VERS = 2.0
CREATION_DATE  = 
ORIGINATOR     = 

OBJECT_NAME    = STARLINK-36132
OBJECT_ID      = 2025-293AB
CENTER_NAME    = EARTH
REF_FRAME      = TEME
TIME_SYSTEM    = UTC
MEAN_ELEMENT_THEORY = SGP/SGP4

EPOCH          = 2026-01-01T20:00:03.000384
MEAN_MOTION    = 15.52622072
ECCENTRICITY   = .0003119
INCLINATION    = 70.0004
RA_OF_ASC_NODE = 266.3987
ARG_OF_PERICENTER = 262.7864
MEAN_ANOMALY   = 296.4230

EPHEMERIS_TYPE = 0
CLASSIFICATION_TYPE = U
NORAD_CAT_ID   = 67028
ELEMENT_SET_NO = 999
REV_AT_EPOCH   = 344
BSTAR          = -.27345E-2
MEAN_MOTION_DOT = -.165552E-2
MEAN_MOTION_DDOT = 0

CCSDS_OMM_VERS = 2.0
CREATION_DATE  = 
ORIGINATOR     = 

OBJECT_NAME    = STARLINK-36190
OBJECT_ID      = 2025-293AC
CENTER_NAME    = EARTH
REF_FRAME      = TEME
TIME_SYSTEM    = UTC
MEAN_ELEMENT_THEORY = SGP/SGP4

EPOCH          = 2026-01-01T20:00:03.000384
MEAN_MOTION    = 15.52662375
ECCENTRICITY   = .0003137
INCLINATION    = 70.0004
RA_OF_ASC_NODE = 266.4012
ARG_OF_PERICENTER = 258.1136
MEAN_ANOMALY   = 299.1545

EPHEMERIS_TYPE = 0
CLASSIFICATION_TYPE = U
NORAD_CAT_ID   = 67029
ELEMENT_SET_NO = 999
REV_AT_EPOCH   = 344
BSTAR          = -.36586E-2
MEAN_MOTION_DOT = -.220258E-2
MEAN_MOTION_DDOT = 0

CCSDS_OMM_VERS = 2.0
CREATION_DATE  = 
ORIGINATOR     = 

OBJECT_NAME    = STARLINK-36138
OBJECT_ID      = 2025-294A
CENTER_NAME    = EARTH
REF_FRAME      = TEME
TIME_SYSTEM    = UTC
MEAN_ELEMENT_THEORY = SGP/SGP4

EPOCH          = 2026-01-01T20:00:03.000384
MEAN_MOTION    = 15.50653015
ECCENTRICITY   = .0001319
INCLINATION    = 43.0006
RA_OF_ASC_NODE = 60.9171
ARG_OF_PERICENTER = 273.8820
MEAN_ANOMALY   = 83.6345

EPHEMERIS_TYPE = 0
CLASSIFICATION_TYPE = U
NORAD_CAT_ID   = 67030
ELEMENT_SET_NO = 999
REV_AT_EPOCH   = 332
BSTAR          = -.29463E-2
MEAN_MOTION_DOT = -.169936E-2
MEAN_MOTION_DDOT = 0

CCSDS_OMM_VERS = 2.0
CREATION_DATE  = 
ORIGINATOR     = 

OBJECT_NAME    = STARLINK-36150
OBJECT_ID      = 2025-294B
CENTER_NAME    = EARTH
REF_FRAME      = TEME
TIME_SYSTEM    = UTC
MEAN_ELEMENT_THEORY = SGP/SGP4

EPOCH          = 2026-01-01T20:00:03.000384
MEAN_MOTION    = 15.45938338
ECCENTRICITY   = .0001278
INCLINATION    = 43.0001
RA_OF_ASC_NODE = 60.9338
ARG_OF_PERICENTER = 272.5988
MEAN_ANOMALY   = 78.1818

EPHEMERIS_TYPE = 0
CLASSIFICATION_TYPE = U
NORAD_CAT_ID   = 67031
ELEMENT_SET_NO = 999
REV_AT_EPOCH   = 352
BSTAR          = -.4692E-1
MEAN_MOTION_DOT = -.20772E-1
MEAN_MOTION_DDOT = 0

CCSDS_OMM_VERS = 2.0
CREATION_DATE  = 
ORIGINATOR     = 

OBJECT_NAME    = STARLINK-36131
OBJECT_ID      = 2025-294C
CENTER_NAME    = EARTH
REF_FRAME      = TEME
TIME_SYSTEM    = UTC
MEAN_ELEMENT_THEORY = SGP/SGP4

EPOCH          = 2026-01-01T20:00:03.000384
MEAN_MOTION    = 15.40608927
ECCENTRICITY   = .000174
INCLINATION    = 43.0006
RA_OF_ASC_NODE = 60.9969
ARG_OF_PERICENTER = 301.9565
MEAN_ANOMALY   = 22.4278

EPHEMERIS_TYPE = 0
CLASSIFICATION_TYPE = U
NORAD_CAT_ID   = 67032
ELEMENT_SET_NO = 999
REV_AT_EPOCH   = 332
BSTAR          = .14285E-2
MEAN_MOTION_DOT = .59658E-3
MEAN_MOTION_DDOT = 0

CCSDS_OMM_VERS = 2.0
CREATION_DATE  = 
ORIGINATOR     = 

OBJECT_NAME    = STARLINK-36137
OBJECT_ID      = 2025-294D
CENTER_NAME    = EARTH
REF_FRAME      = TEME
TIME_SYSTEM    = UTC
MEAN_ELEMENT_THEORY = SGP/SGP4

EPOCH          = 2026-01-01T20:00:03.000384
MEAN_MOTION    = 15.42546112
ECCENTRICITY   = .0001277
INCLINATION    = 43.0006
RA_OF_ASC_NODE = 60.9702
ARG_OF_PERICENTER = 278.6875
MEAN_ANOMALY   = 56.7708

EPHEMERIS_TYPE = 0
CLASSIFICATION_TYPE = U
NORAD_CAT_ID   = 67033
ELEMENT_SET_NO = 999
REV_AT_EPOCH   = 332
BSTAR          = -.51974E-1
MEAN_MOTION_DOT = -.2051118E-1
MEAN_MOTION_DDOT = 0

CCSDS_OMM_VERS = 2.0
CREATION_DATE  = 
ORIGINATOR     = 

OBJECT_NAME    = STARLINK-36140
OBJECT_ID      = 2025-294E
CENTER_NAME    = EARTH
REF_FRAME      = TEME
TIME_SYSTEM    = UTC
MEAN_ELEMENT_THEORY = SGP/SGP4

EPOCH          = 2026-01-01T14:00:01.999872
MEAN_MOTION    = 15.47877205
ECCENTRICITY   = .0001288
INCLINATION    = 43.0006
RA_OF_ASC_NODE = 62.3690
ARG_OF_PERICENTER = 281.9806
MEAN_ANOMALY   = 123.1035

EPHEMERIS_TYPE = 0
CLASSIFICATION_TYPE = U
NORAD_CAT_ID   = 67034
ELEMENT_SET_NO = 999
REV_AT_EPOCH   = 328
BSTAR          = -.42662217E-1
MEAN_MOTION_DOT = -.2027441E-1
MEAN_MOTION_DDOT = 0

CCSDS_OMM_VERS = 2.0
CREATION_DATE  = 
ORIGINATOR     = 

OBJECT_NAME    = STARLINK-36085
OBJECT_ID      = 2025-294F
CENTER_NAME    = EARTH
REF_FRAME      = TEME
TIME_SYSTEM    = UTC
MEAN_ELEMENT_THEORY = SGP/SGP4

EPOCH          = 2026-01-01T20:00:03.000384
MEAN_MOTION    = 15.50612786
ECCENTRICITY   = .0001536
INCLINATION    = 43.0006
RA_OF_ASC_NODE = 60.8878
ARG_OF_PERICENTER = 262.3869
MEAN_ANOMALY   = 106.6741

EPHEMERIS_TYPE = 0
CLASSIFICATION_TYPE = U
NORAD_CAT_ID   = 67035
ELEMENT_SET_NO = 999
REV_AT_EPOCH   = 332
BSTAR          = -.21604E-2
MEAN_MOTION_DOT = -.125226E-2
MEAN_MOTION_DDOT = 0

CCSDS_OMM_VERS = 2.0
CREATION_DATE  = 
ORIGINATOR     = 

OBJECT_NAME    = STARLINK-36125
OBJECT_ID      = 2025-294G
CENTER_NAME    = EARTH
REF_FRAME      = TEME
TIME_SYSTEM    = UTC
MEAN_ELEMENT_THEORY = SGP/SGP4

EPOCH          = 2026-01-01T20:00:03.000384
MEAN_MOTION    = 15.50628575
ECCENTRICITY   = .0001585
INCLINATION    = 43.0007
RA_OF_ASC_NODE = 60.8935
ARG_OF_PERICENTER = 267.2899
MEAN_ANOMALY   = 99.8239

EPHEMERIS_TYPE = 0
CLASSIFICATION_TYPE = U
NORAD_CAT_ID   = 67036
ELEMENT_SET_NO = 999
REV_AT_EPOCH   = 352
BSTAR          = -.22099E-2
MEAN_MOTION_DOT = -.128116E-2
MEAN_MOTION_DDOT = 0

CCSDS_OMM_VERS = 2.0
CREATION_DATE  = 
ORIGINATOR     = 

OBJECT_NAME    = STARLINK-35732
OBJECT_ID      = 2025-294H
CENTER_NAME    = EARTH
REF_FRAME      = TEME
TIME_SYSTEM    = UTC
MEAN_ELEMENT_THEORY = SGP/SGP4

EPOCH          = 2026-01-01T20:00:03.000384
MEAN_MOTION    = 15.50674186
ECCENTRICITY   = .0001549
INCLINATION    = 43.0007
RA_OF_ASC_NODE = 60.8841
ARG_OF_PERICENTER = 262.9467
MEAN_ANOMALY   = 107.9867

EPHEMERIS_TYPE = 0
CLASSIFICATION_TYPE = U
NORAD_CAT_ID   = 67037
ELEMENT_SET_NO = 999
REV_AT_EPOCH   = 344
BSTAR          = -.3561E-2
MEAN_MOTION_DOT = -.204579E-2
MEAN_MOTION_DDOT = 0

CCSDS_OMM_VERS = 2.0
CREATION_DATE  = 
ORIGINATOR     = 

OBJECT_NAME    = STARLINK-35775
OBJECT_ID      = 2025-294J
CENTER_NAME    = EARTH
REF_FRAME      = TEME
TIME_SYSTEM    = UTC
MEAN_ELEMENT_THEORY = SGP/SGP4

EPOCH          = 2026-01-01T20:00:03.000384
MEAN_MOTION    = 15.50642749
ECCENTRICITY   = .0001342
INCLINATION    = 43.0006
RA_OF_ASC_NODE = 60.8785
ARG_OF_PERICENTER = 269.3813
MEAN_ANOMALY   = 103.4795

EPHEMERIS_TYPE = 0
CLASSIFICATION_TYPE = U
NORAD_CAT_ID   = 67038
ELEMENT_SET_NO = 999
REV_AT_EPOCH   = 344
BSTAR          = -.26605E-2
MEAN_MOTION_DOT = -.153745E-2
MEAN_MOTION_DDOT = 0

CCSDS_OMM_VERS = 2.0
CREATION_DATE  = 
ORIGINATOR     = 

OBJECT_NAME    = STARLINK-35705
OBJECT_ID      = 2025-294K
CENTER_NAME    = EARTH
REF_FRAME      = TEME
TIME_SYSTEM    = UTC
MEAN_ELEMENT_THEORY = SGP/SGP4

EPOCH          = 2026-01-01T20:00:03.000384
MEAN_MOTION    = 15.50630979
ECCENTRICITY   = .000141
INCLINATION    = 43.0008
RA_OF_ASC_NODE = 60.8691
ARG_OF_PERICENTER = 261.4874
MEAN_ANOMALY   = 115.2112

EPHEMERIS_TYPE = 0
CLASSIFICATION_TYPE = U
NORAD_CAT_ID   = 67039
ELEMENT_SET_NO = 999
REV_AT_EPOCH   = 332
BSTAR          = -.22914E-2
MEAN_MOTION_DOT = -.132757E-2
MEAN_MOTION_DDOT = 0

CCSDS_OMM_VERS = 2.0
CREATION_DATE  = 
ORIGINATOR     = 

OBJECT_NAME    = STARLINK-35786
OBJECT_ID      = 2025-294L
CENTER_NAME    = EARTH
REF_FRAME      = TEME
TIME_SYSTEM    = UTC
MEAN_ELEMENT_THEORY = SGP/SGP4

EPOCH          = 2026-01-01T20:00:03.000384
MEAN_MOTION    = 15.48741233
ECCENTRICITY   = .0001485
INCLINATION    = 43.0007
RA_OF_ASC_NODE = 60.8771
ARG_OF_PERICENTER = 274.6299
MEAN_ANOMALY   = 98.7508

EPHEMERIS_TYPE = 0
CLASSIFICATION_TYPE = U
NORAD_CAT_ID   = 67040
ELEMENT_SET_NO = 999
REV_AT_EPOCH   = 332
BSTAR          = -.43421E-1
MEAN_MOTION_DOT = -.2116276E-1
MEAN_MOTION_DDOT = 0

CCSDS_OMM_VERS = 2.0
CREATION_DATE  = 
ORIGINATOR     = 

OBJECT_NAME    = STARLINK-35765
OBJECT_ID      = 2025-294M
CENTER_NAME    = EARTH
REF_FRAME      = TEME
TIME_SYSTEM    = UTC
MEAN_ELEMENT_THEORY = SGP/SGP4

EPOCH          = 2026-01-01T20:00:03.000384
MEAN_MOTION    = 15.50660513
ECCENTRICITY   = .0001618
INCLINATION    = 43.0008
RA_OF_ASC_NODE = 60.8646
ARG_OF_PERICENTER = 263.9367
MEAN_ANOMALY   = 114.6695

EPHEMERIS_TYPE = 0
CLASSIFICATION_TYPE = U
NORAD_CAT_ID   = 67041
ELEMENT_SET_NO = 999
REV_AT_EPOCH   = 332
BSTAR          = -.31405E-2
MEAN_MOTION_DOT = -.180916E-2
MEAN_MOTION_DDOT = 0

CCSDS_OMM_VERS = 2.0
CREATION_DATE  = 
ORIGINATOR     = 

OBJECT_NAME    = STARLINK-35773
OBJECT_ID      = 2025-294N
CENTER_NAME    = EARTH
REF_FRAME      = TEME
TIME_SYSTEM    = UTC
MEAN_ELEMENT_THEORY = SGP/SGP4

EPOCH          = 2026-01-01T20:00:03.000384
MEAN_MOTION    = 15.50616530
ECCENTRICITY   = .0001526
INCLINATION    = 43.0006
RA_OF_ASC_NODE = 60.8589
ARG_OF_PERICENTER = 272.7641
MEAN_ANOMALY   = 107.7630

EPHEMERIS_TYPE = 0
CLASSIFICATION_TYPE = U
NORAD_CAT_ID   = 67042
ELEMENT_SET_NO = 999
REV_AT_EPOCH   = 352
BSTAR          = -.12048E-2
MEAN_MOTION_DOT = -.70483E-3
MEAN_MOTION_DDOT = 0

